CCSDS_OMM_VERS = 2.0
CREATION_DATE  = 
ORIGINATOR     = 

OBJECT_NAME    = GUOWANG GROUP 20 OBJECT G
OBJECT_ID      = 2026-047G
CENTER_NAME    = EARTH
REF_FRAME      = TEME
TIME_SYSTEM    = UTC
MEAN_ELEMENT_THEORY = SGP/SGP4

EPOCH          = 2026-03-18T11:38:38.289696
MEAN_MOTION    = 14.06047359
ECCENTRICITY   = .000739
INCLINATION    = 50.0118
RA_OF_ASC_NODE = 34.5855
ARG_OF_PERICENTER = 289.5360
MEAN_ANOMALY   = 70.4747

EPHEMERIS_TYPE = 0
CLASSIFICATION_TYPE = U
NORAD_CAT_ID   = 68135
ELEMENT_SET_NO = 999
REV_AT_EPOCH   = 80
BSTAR          = .45316E-5
MEAN_MOTION_DOT = -.145E-5
MEAN_MOTION_DDOT = 0

CCSDS_OMM_VERS = 2.0
CREATION_DATE  = 
ORIGINATOR     = 

OBJECT_NAME    = GUOWANG GROUP 20 OBJECT H
OBJECT_ID      = 2026-047H
CENTER_NAME    = EARTH
REF_FRAME      = TEME
TIME_SYSTEM    = UTC
MEAN_ELEMENT_THEORY = SGP/SGP4

EPOCH          = 2026-03-18T11:38:04.304256
MEAN_MOTION    = 14.06144218
ECCENTRICITY   = .0007518
INCLINATION    = 50.0094
RA_OF_ASC_NODE = 34.5813
ARG_OF_PERICENTER = 295.5589
MEAN_ANOMALY   = 64.4539

EPHEMERIS_TYPE = 0
CLASSIFICATION_TYPE = U
NORAD_CAT_ID   = 68136
ELEMENT_SET_NO = 999
REV_AT_EPOCH   = 79
BSTAR          = .51328E-5
MEAN_MOTION_DOT = -.144E-5
MEAN_MOTION_DDOT = 0

CCSDS_OMM_VERS = 2.0
CREATION_DATE  = 
ORIGINATOR     = 

OBJECT_NAME    = GUOWANG GROUP 20 OBJECT J
OBJECT_ID      = 2026-047J
CENTER_NAME    = EARTH
REF_FRAME      = TEME
TIME_SYSTEM    = UTC
MEAN_ELEMENT_THEORY = SGP/SGP4

EPOCH          = 2026-03-18T09:55:00.440256
MEAN_MOTION    = 14.06272280
ECCENTRICITY   = .000596
INCLINATION    = 50.0093
RA_OF_ASC_NODE = 34.8670
ARG_OF_PERICENTER = 290.8797
MEAN_ANOMALY   = 69.1470

EPHEMERIS_TYPE = 0
CLASSIFICATION_TYPE = U
NORAD_CAT_ID   = 68137
ELEMENT_SET_NO = 999
REV_AT_EPOCH   = 79
BSTAR          = .67809E-5
MEAN_MOTION_DOT = -.141E-5
MEAN_MOTION_DDOT = 0

CCSDS_OMM_VERS = 2.0
CREATION_DATE  = 
ORIGINATOR     = 

OBJECT_NAME    = CZ-8A R/B
OBJECT_ID      = 2026-047K
CENTER_NAME    = EARTH
REF_FRAME      = TEME
TIME_SYSTEM    = UTC
MEAN_ELEMENT_THEORY = SGP/SGP4

EPOCH          = 2026-03-18T12:45:53.167104
MEAN_MOTION    = 14.12228173
ECCENTRICITY   = .004476
INCLINATION    = 49.9542
RA_OF_ASC_NODE = 34.1057
ARG_OF_PERICENTER = 168.8017
MEAN_ANOMALY   = 191.3896

EPHEMERIS_TYPE = 0
CLASSIFICATION_TYPE = U
NORAD_CAT_ID   = 68138
ELEMENT_SET_NO = 999
REV_AT_EPOCH   = 80
BSTAR          = -.75266E-5
MEAN_MOTION_DOT = -.169E-5
MEAN_MOTION_DDOT = 0

CCSDS_OMM_VERS = 2.0
CREATION_DATE  = 
ORIGINATOR     = 

OBJECT_NAME    = SHIYAN-30 03
OBJECT_ID      = 2026-048A
CENTER_NAME    = EARTH
REF_FRAME      = TEME
TIME_SYSTEM    = UTC
MEAN_ELEMENT_THEORY = SGP/SGP4

EPOCH          = 2026-03-18T11:20:59.215776
MEAN_MOTION    = 14.91672372
ECCENTRICITY   = .0004098
INCLINATION    = 34.9995
RA_OF_ASC_NODE = 91.4018
ARG_OF_PERICENTER = 280.3967
MEAN_ANOMALY   = 79.6276

EPHEMERIS_TYPE = 0
CLASSIFICATION_TYPE = U
NORAD_CAT_ID   = 68139
ELEMENT_SET_NO = 999
REV_AT_EPOCH   = 81
BSTAR          = .23385E-3
MEAN_MOTION_DOT = .2369E-4
MEAN_MOTION_DDOT = 0

CCSDS_OMM_VERS = 2.0
CREATION_DATE  = 
ORIGINATOR     = 

OBJECT_NAME    = SHIYAN-30 04
OBJECT_ID      = 2026-048B
CENTER_NAME    = EARTH
REF_FRAME      = TEME
TIME_SYSTEM    = UTC
MEAN_ELEMENT_THEORY = SGP/SGP4

EPOCH          = 2026-03-18T11:22:07.140000
MEAN_MOTION    = 14.91681928
ECCENTRICITY   = .0002528
INCLINATION    = 34.9911
RA_OF_ASC_NODE = 91.4103
ARG_OF_PERICENTER = 284.7601
MEAN_ANOMALY   = 75.2824

EPHEMERIS_TYPE = 0
CLASSIFICATION_TYPE = U
NORAD_CAT_ID   = 68140
ELEMENT_SET_NO = 999
REV_AT_EPOCH   = 81
BSTAR          = .14266E-3
MEAN_MOTION_DOT = .1435E-4
MEAN_MOTION_DDOT = 0

CCSDS_OMM_VERS = 2.0
CREATION_DATE  = 
ORIGINATOR     = 

OBJECT_NAME    = CZ-2D R/B
OBJECT_ID      = 2026-048C
CENTER_NAME    = EARTH
REF_FRAME      = TEME
TIME_SYSTEM    = UTC
MEAN_ELEMENT_THEORY = SGP/SGP4

EPOCH          = 2026-03-18T11:05:07.506816
MEAN_MOTION    = 14.95528002
ECCENTRICITY   = .0015156
INCLINATION    = 35.1293
RA_OF_ASC_NODE = 91.5290
ARG_OF_PERICENTER = 40.7983
MEAN_ANOMALY   = 319.3858

EPHEMERIS_TYPE = 0
CLASSIFICATION_TYPE = U
NORAD_CAT_ID   = 68141
ELEMENT_SET_NO = 999
REV_AT_EPOCH   = 81
BSTAR          = .14023E-3
MEAN_MOTION_DOT = .1555E-4
MEAN_MOTION_DDOT = 0

CCSDS_OMM_VERS = 2.0
CREATION_DATE  = 
ORIGINATOR     = 

OBJECT_NAME    = YAOGAN-50 02
OBJECT_ID      = 2026-051A
CENTER_NAME    = EARTH
REF_FRAME      = TEME
TIME_SYSTEM    = UTC
MEAN_ELEMENT_THEORY = SGP/SGP4

EPOCH          = 2026-03-18T12:10:36.007680
MEAN_MOTION    = 14.07679277
ECCENTRICITY   = .0107477
INCLINATION    = 142.0175
RA_OF_ASC_NODE = 249.1578
ARG_OF_PERICENTER = 141.9397
MEAN_ANOMALY   = 218.8970

EPHEMERIS_TYPE = 0
CLASSIFICATION_TYPE = U
NORAD_CAT_ID   = 68196
ELEMENT_SET_NO = 999
REV_AT_EPOCH   = 42
BSTAR          = .29264E-4
MEAN_MOTION_DOT = .252E-5
MEAN_MOTION_DDOT = 0

CCSDS_OMM_VERS = 2.0
CREATION_DATE  = 
ORIGINATOR     = 

OBJECT_NAME    = CZ-6A R/B
OBJECT_ID      = 2026-051B
CENTER_NAME    = EARTH
REF_FRAME      = TEME
TIME_SYSTEM    = UTC
MEAN_ELEMENT_THEORY = SGP/SGP4

EPOCH          = 2026-03-18T10:09:49.975776
MEAN_MOTION    = 14.56355526
ECCENTRICITY   = .018563
INCLINATION    = 142.0311
RA_OF_ASC_NODE = 249.7328
ARG_OF_PERICENTER = 112.6794
MEAN_ANOMALY   = 249.3680

EPHEMERIS_TYPE = 0
CLASSIFICATION_TYPE = U
NORAD_CAT_ID   = 68197
ELEMENT_SET_NO = 999
REV_AT_EPOCH   = 43
BSTAR          = .18983E-3
MEAN_MOTION_DOT = .1385E-4
MEAN_MOTION_DDOT = 0

CCSDS_OMM_VERS = 2.0
CREATION_DATE  = 
ORIGINATOR     = 

OBJECT_NAME    = 2026-052A
OBJECT_ID      = 2026-052A
CENTER_NAME    = EARTH
REF_FRAME      = TEME
TIME_SYSTEM    = UTC
MEAN_ELEMENT_THEORY = SGP/SGP4

EPOCH          = 2026-03-18T12:53:50.554752
MEAN_MOTION    = 15.09826030
ECCENTRICITY   = .0012302
INCLINATION    = 97.5390
RA_OF_ASC_NODE = 153.7513
ARG_OF_PERICENTER = 256.7202
MEAN_ANOMALY   = 103.2655

EPHEMERIS_TYPE = 0
CLASSIFICATION_TYPE = U
NORAD_CAT_ID   = 68198
ELEMENT_SET_NO = 999
REV_AT_EPOCH   = 36
BSTAR          = .35099E-3
MEAN_MOTION_DOT = .5622E-4
MEAN_MOTION_DDOT = 0

CCSDS_OMM_VERS = 2.0
CREATION_DATE  = 
ORIGINATOR     = 

OBJECT_NAME    = 2026-052B
OBJECT_ID      = 2026-052B
CENTER_NAME    = EARTH
REF_FRAME      = TEME
TIME_SYSTEM    = UTC
MEAN_ELEMENT_THEORY = SGP/SGP4

EPOCH          = 2026-03-18T12:53:28.019040
MEAN_MOTION    = 15.09983837
ECCENTRICITY   = .0011565
INCLINATION    = 97.5382
RA_OF_ASC_NODE = 153.7508
ARG_OF_PERICENTER = 258.3295
MEAN_ANOMALY   = 101.6636

EPHEMERIS_TYPE = 0
CLASSIFICATION_TYPE = U
NORAD_CAT_ID   = 68199
ELEMENT_SET_NO = 999
REV_AT_EPOCH   = 36
BSTAR          = .10108E-3
MEAN_MOTION_DOT = .158E-4
MEAN_MOTION_DDOT = 0

CCSDS_OMM_VERS = 2.0
CREATION_DATE  = 
ORIGINATOR     = 

OBJECT_NAME    = 2026-052C
OBJECT_ID      = 2026-052C
CENTER_NAME    = EARTH
REF_FRAME      = TEME
TIME_SYSTEM    = UTC
MEAN_ELEMENT_THEORY = SGP/SGP4

EPOCH          = 2026-03-18T12:53:09.373920
MEAN_MOTION    = 15.10129922
ECCENTRICITY   = .0011235
INCLINATION    = 97.5387
RA_OF_ASC_NODE = 153.7522
ARG_OF_PERICENTER = 261.3817
MEAN_ANOMALY   = 98.6139

EPHEMERIS_TYPE = 0
CLASSIFICATION_TYPE = U
NORAD_CAT_ID   = 68200
ELEMENT_SET_NO = 999
REV_AT_EPOCH   = 35
BSTAR          = .22594E-3
MEAN_MOTION_DOT = .3625E-4
MEAN_MOTION_DDOT = 0

