GUOWANG GROUP 20 OBJECT*
1 68135U 26047G   26077.48516539 -.00000145  00000+0  45316-5 0  9999
2 68135  50.0118  34.5855 0007390 289.5360  70.4747 14.06047359   808
GUOWANG GROUP 20 OBJECT*
1 68136U 26047H   26077.48477204 -.00000144  00000+0  51328-5 0  9994
2 68136  50.0094  34.5813 0007518 295.5589  64.4539 14.06144218   790
GUOWANG GROUP 20 OBJECT*
1 68137U 26047J   26077.41319954 -.00000141  00000+0  67809-5 0  9993
2 68137  50.0093  34.8670 0005960 290.8797  69.1470 14.06272280   799
CZ-8A R/B               
1 68138U 26047K   26077.53186536 -.00000169  00000+0 -75266-5 0  9992
2 68138  49.9542  34.1057 0044760 168.8017 191.3896 14.12228173   809
SHIYAN-30 03            
1 68139U 26048A   26077.47290759  .00002369  00000+0  23385-3 0  9995
2 68139  34.9995  91.4018 0004098 280.3967  79.6276 14.91672372   815
SHIYAN-30 04            
1 68140U 26048B   26077.47369375  .00001435  00000+0  14266-3 0  9999
2 68140  34.9911  91.4103 0002528 284.7601  75.2824 14.91681928   817
CZ-2D R/B               
1 68141U 26048C   26077.46189244  .00001555  00000+0  14023-3 0  9998
2 68141  35.1293  91.5290 0015156  40.7983 319.3858 14.95528002   812
YAOGAN-50 02            
1 68196U 26051A   26077.50736120  .00000252  00000+0  29264-4 0  9995
2 68196 142.0175 249.1578 0107477 141.9397 218.8970 14.07679277   429
CZ-6A R/B               
1 68197U 26051B   26077.42349509  .00001385  00000+0  18983-3 0  9991
2 68197 142.0311 249.7328 0185630 112.6794 249.3680 14.56355526   434
2026-052A               
1 68198U 26052A   26077.53739068  .00005622  00000+0  35099-3 0  9993
2 68198  97.5390 153.7513 0012302 256.7202 103.2655 15.09826030   369
2026-052B               
1 68199U 26052B   26077.53712985  .00001580  00000+0  10108-3 0  9996
2 68199  97.5382 153.7508 0011565 258.3295 101.6636 15.09983837   365
2026-052C               
1 68200U 26052C   26077.53691405  .00003625  00000+0  22594-3 0  9996
2 68200  97.5387 153.7522 0011235 261.3817  98.6139 15.10129922   358
